OBJECT_NAME,OBJECT_ID,EPOCH,MEAN_MOTION,ECCENTRICITY,INCLINATION,RA_OF_ASC_NODE,ARG_OF_PERICENTER,MEAN_ANOMALY,EPHEMERIS_TYPE,CLASSIFICATION_TYPE,NORAD_CAT_ID,ELEMENT_SET_NO,REV_AT_EPOCH,BSTAR,MEAN_MOTION_DOT,MEAN_MOTION_DDOT
COSMOS 2534 (758),2019-030A,2026-06-29T15:50:49.664256,2.13102425,.00135177,64.3700,192.1964,275.0224,73.0621,0,U,44299,999,5518,0,.85E-6,0
BEIDOU-3 IGSO-2 (C39),2019-035A,2026-07-03T20:42:46.045152,1.00261697,.00396639,55.2500,158.7161,216.4194,336.5395,0,U,44337,999,2583,0,-.94E-6,0
GPS BIII-2  (PRN 18),2019-056A,2026-07-03T20:08:35.617632,2.00570148,.00628784,55.6284,330.4819,197.8968,333.5224,0,U,44506,999,5040,0,-.73E-6,0
BEIDOU-3 M24 (C46),2019-061A,2026-07-03T21:18:43.189632,1.86229350,.00085654,54.3971,182.1643,358.8529,1.1460,0,U,44542,999,4610,0,.88E-6,0
BEIDOU-3 M23 (C45),2019-061B,2026-07-03T11:06:35.228736,1.86227531,.00058418,54.3962,182.1475,339.4120,7.0782,0,U,44543,999,4609,0,.84E-6,0
EUTELSAT 5 WEST B (EGNOS/PRN 121),2019-067A,2026-07-04T05:18:33.178176,1.00271486,.00033461,0.0686,333.9509,129.3441,253.5777,0,U,44624,999,2460,0,-.3E-6,0
BEIDOU-3 M22 (C44),2019-078A,2026-07-02T02:48:48.341088,1.86227671,.0005958,53.9213,299.3025,49.9871,310.0853,0,U,44793,999,4492,0,-.61E-6,0
BEIDOU-3 M21 (C43),2019-078B,2026-06-27T23:04:25.677120,1.86227959,.00039786,53.8982,299.4091,49.1157,310.9195,0,U,44794,999,4485,0,-.87E-6,0
COSMOS 2544 (759),2019-088A,2026-07-02T12:21:34.940736,2.13103168,.00126282,65.5733,73.2191,256.5667,103.3590,0,U,44850,999,5104,0,-.8E-7,0
BEIDOU-3 M19 (C41),2019-090A,2026-07-02T17:41:22.023744,1.86231685,.00171391,56.5715,62.2771,297.4185,221.8650,0,U,44864,999,4452,0,-.37E-6,0
BEIDOU-3 M20 (C42),2019-090B,2026-07-02T15:58:39.158400,1.86231813,.00151255,56.5739,62.3139,311.8646,249.1839,0,U,44865,999,4450,0,-.37E-6,0
BEIDOU-3 G2 (C60),2020-017A,2026-07-04T04:00:13.577184,1.00271349,.00025585,2.8967,47.5846,47.1404,327.6044,0,U,45344,999,2343,0,-.13E-5,0
COSMOS 2545 (760),2020-018A,2026-07-03T15:33:46.473984,2.13102788,.00090285,64.3444,311.8404,230.0373,129.8930,0,U,45358,999,4901,0,-.45E-6,0
BEIDOU-3 G3 (C61),2020-040A,2026-07-04T05:51:30.018816,1.00270679,.0002381,2.4868,67.4781,333.8363,79.3801,0,U,45807,999,2224,0,-.343E-5,0
GPS BIII-3  (PRN 23),2020-041A,2026-06-29T16:53:58.819200,2.00558738,.006557,56.6684,28.4552,209.6857,153.6636,0,U,45854,999,4429,0,-.68E-6,0
GALAXY 30 (WAAS/PRN 135),2020-056C,2026-07-04T04:44:18.638880,1.00271608,.00020198,0.0217,36.3001,70.3779,121.6188,0,U,46114,999,2146,0,0,0
COSMOS 2547 (705K),2020-075A,2026-06-30T13:16:42.878784,2.13100012,.00093996,64.6009,192.0293,239.7356,120.2111,0,U,46805,999,4419,0,.81E-6,0
GPS BIII-4  (PRN 14),2020-078A,2026-07-01T06:33:33.963264,2.00565158,.0074038,53.9787,210.2073,207.5025,185.7090,0,U,46826,999,4179,0,.67E-6,0
GPS BIII-5  (PRN 11),2021-054A,2026-07-02T00:34:02.169408,2.00568335,.0025946,55.1671,331.8638,228.3850,172.9360,0,U,48859,999,3705,0,-.82E-6,0
QZS-1R (QZSS/PRN 196),2021-096A,2026-07-02T14:34:09.311808,1.00250822,.07559081,37.4911,79.3558,272.0505,280.6356,0,U,49336,999,1716,0,-.27E-5,0
GSAT0223 (GALILEO 27),2021-116A,2026-07-03T10:06:08.269920,1.70476367,.00017874,57.1558,341.2375,186.7549,176.0990,0,U,49809,999,2846,0,-.75E-6,0
GSAT0224 (GALILEO 28),2021-116B,2026-07-03T19:40:34.453344,1.70476408,.00015726,57.1559,341.2257,171.0762,189.2294,0,U,49810,999,2849,0,-.74E-6,0
COSMOS 2557 (706K),2022-075A,2026-06-29T07:25:57.374112,2.13102382,.00105914,64.2907,314.0587,272.5686,87.3025,0,U,52984,999,3097,0,-.7E-6,0
COSMOS 2559 (707K),2022-130A,2026-07-02T21:12:10.424736,2.13101779,.00128797,64.2611,314.0154,179.7670,180.2387,0,U,54031,999,2902,0,-.49E-6,0
COSMOS 2564 (761),2022-161A,2026-07-03T15:57:49.461120,2.13102052,.00122705,64.7432,192.1647,225.1097,134.8193,0,U,54377,999,2798,0,.89E-6,0
GPS BIII-6  (PRN 28),2023-009A,2026-07-01T18:20:00.000096,2.00571084,.00062623,55.1238,147.9465,318.3854,293.8670,0,U,55268,999,2553,0,.4E-6,0
BEIDOU-3 G4 (C62),2023-066A,2026-07-04T05:59:57.288768,1.00268025,.00050443,0.4698,335.7223,177.6675,358.8620,0,U,56564,999,1156,0,-.27E-5,0
NVS-01 (IRNSS-1J),2023-076A,2026-07-04T05:56:57.575904,1.00270928,.00030363,2.1283,243.5850,8.1458,249.3451,0,U,56759,999,1128,0,-.323E-5,0
COSMOS 2569 (703K),2023-114A,2026-06-30T09:25:27.591744,2.13103831,.00101962,65.3095,72.1752,296.5286,63.4269,0,U,57517,999,2254,0,-.2E-6,0
BEIDOU-3 M28 (C50),2023-207A,2026-07-03T09:47:36.537792,1.86229803,.00027479,55.7669,61.7560,357.7806,2.2873,0,U,58654,999,1714,0,-.38E-6,0
BEIDOU-3 M26 (C48),2023-207B,2026-07-03T04:56:00.090240,1.86229811,.00024376,55.7690,61.7493,322.8405,37.2117,0,U,58655,999,1712,0,-.38E-6,0
